BEIDOU G3               
1 36590U 10024A   17287.97859995 -.00000380  00000-0  00000+0 0  9997
2 36590   1.4325  29.5164 0006822 302.5398 154.4707  1.00269271 27022
BADR-5                  
1 36592U 10025A   17288.38660247  .00000118  00000-0  00000+0 0  9994
2 36592   0.0127 221.7869 0004743 333.2742 354.2414  1.00269212 27144
COMS 1                  
1 36744U 10032A   17288.56299463 -.00000371  00000-0  00000-0 0  9992
2 36744   0.0405 103.8047 0000887 157.8920  93.4935  1.00272412 19331
ARABSAT-5A              
1 36745U 10032B   17288.88240387  .00000127  00000-0  00000+0 0  9996
2 36745   0.0589  27.3409 0003278 182.1562 163.2705  1.00273727 26886
ECHOSTAR 15             
1 36792U 10034A   17288.83729666 -.00000308  00000-0  00000+0 0  9999
2 36792   0.0470  65.9705 0001977 155.8324  42.5456  1.00270523 26648
NILESAT 201             
1 36830U 10037A   17288.28868703 -.00000084  00000-0  00000-0 0  9992
2 36830   0.0526 151.6776 0003979  40.4472 288.8253  1.00272354 26612
RASCOM-QAF 1R           
1 36831U 10037B   17287.92608190 -.00000007  00000-0  00000-0 0  9990
2 36831   0.0154 132.6498 0005002  89.4980 137.8321  1.00273023 26552
CHINASAT 6A (ZX 6A)     
1 37150U 10042A   17288.27271701 -.00000380  00000-0  00000-0 0  9998
2 37150   0.0564 117.4095 0001456 139.8039 350.0559  1.00275135 26143
QZS-1 (MICHIBIKI)       
1 37158U 10045A   17287.98174362 -.00000182  00000-0  00000+0 0  9990
2 37158  40.9307 157.5901 0748096 270.0345  85.9651  1.00294555 25958
XM-5                    
1 37185U 10053A   17288.85188312 -.00000231  00000-0  00000+0 0  9991
2 37185   0.0219 222.6845 0001922 140.4301 242.9170  1.00269756 25697
BSAT-3B                 
1 37207U 10056B   17288.86765350 -.00000377  00000-0  00000+0 0  9994
2 37207   0.0401  24.7482 0003116 246.7203 175.3486  1.00274733 25523
BEIDOU G4               
1 37210U 10057A   17288.45882959 -.00000137  00000-0  00000+0 0  9993
2 37210   0.8977  53.5932 0007076 177.9643 117.8641  1.00272187 25531
SKYTERRA 1              
1 37218U 10061A   17288.13698598 -.00000146  00000-0  00000-0 0  9996
2 37218   3.0784 332.1554 0003409 189.1007 170.6096  1.00271383 25450
ZHONGXING-20A           
1 37234U 10064A   17288.47341067 -.00000364  00000-0  00000+0 0  9991
2 37234   0.0334 286.0765 0003089  13.2169  25.1474  1.00269433 25274
HYLAS 1                 
1 37237U 10065A   17288.42202112 -.00000260  00000-0  00000+0 0  9992
2 37237   0.0543  53.3741 0001456 154.7650 294.4229  1.00273657 25250
INTELSAT 17 (IS-17)     
1 37238U 10065B   17288.87684821 -.00000028  00000-0  00000+0 0  9995
2 37238   0.0197 171.1070 0002983  41.8692 193.2880  1.00272567 25177
EUTELSAT KA-SAT 9A      
1 37258U 10069A   17287.90915498  .00000036  00000-0  00000+0 0  9999
2 37258   0.0409 268.5916 0002605 315.3662 136.0399  1.00272072 25061
HISPASAT 1E             
1 37264U 10070A   17288.32523351 -.00000242  00000-0  00000-0 0  9999
2 37264   0.0520 107.3702 0004899  83.1048 280.6901  1.00272304 21430
KOREASAT 6              
1 37265U 10070B   17288.56785376 -.00000389  00000-0  00000-0 0  9995
2 37265   0.0139 197.2887 0001816  25.3263 122.0913  1.00271079 25021
INTELSAT NEW DAWN       
1 37392U 11016A   17288.62587512  .00000129  00000-0  00000-0 0  9997
2 37392   0.0178 223.1032 0001690  42.9981  16.4185  1.00276176 21552
YAHSAT 1A               
1 37393U 11016B   17288.59603435  .00000074  00000-0  00000-0 0  9996
2 37393   0.0198 248.0027 0002122 331.6814  71.7336  1.00272907 10658
TELSTAR 14R             
1 37602U 11021A   17288.53035455 -.00000306  00000-0  00000-0 0  9999
2 37602   0.0498  69.1762 0001948 215.4067 227.6066  1.00271958 24108
GSAT-8                  
1 37605U 11022A   17288.89494351  .00000059  00000-0  00000+0 0  9999
2 37605   0.1042  94.7416 0006752 160.8332 146.2863  1.00272036 23493
ST-2                    
1 37606U 11022B   17288.59432137 -.00000238  00000-0  00000-0 0  9992
2 37606   0.0183 205.5249 0001427 355.3905 125.3734  1.00272314 23524
CHINASAT 10 (ZX 10)     
1 37677U 11026A   17288.64047149 -.00000379  00000-0  00000-0 0  9991
2 37677   0.0762 270.5181 0004798 279.0788 175.8275  1.00273690 23222
TIANLIAN 1-02           
1 37737U 11032A   17288.49355032  .00000005  00000-0  00000+0 0  9995
2 37737   2.8297  76.8514 0008137 166.6679 135.1492  1.00272489 22965
GSAT-12                 
1 37746U 11034A   17288.59498782 -.00000192  00000-0  00000-0 0  9997
2 37746   0.0890  94.2033 0004757  10.3292 216.9918  1.00272265 11730
SES-3                   
1 37748U 11035A   17288.48309801 -.00000128  00000-0  00000-0 0  9990
2 37748   0.0490  66.0112 0001956 155.9051 233.2149  1.00271380 22861
KAZSAT-2                
1 37749U 11035B   17288.57757778 -.00000225  00000-0  00000-0 0  9999
2 37749   0.0254 308.7228 0001507 311.5479  58.4810  1.00271088 21642
ASTRA 1N                
1 37775U 11041A   17288.39146435  .00000093  00000-0  00000-0 0  9999
2 37775   0.0515  30.2538 0000968  93.4372  60.5703  1.00270344 12784
BSAT-3C (JCSAT-110R)    
1 37776U 11041B   17288.86765358 -.00000377  00000-0  00000+0 0  9998
2 37776   0.0526  86.4536 0000160 275.1439  85.3323  1.00273059 22774
PAKSAT-1R               
1 37779U 11042A   17288.26924457  .00000127  00000-0  00000+0 0  9995
2 37779   0.0384 327.4707 0003174 252.3301 299.1378  1.00271067 22525
CHINASAT 1A (ZX 1A)     
1 37804U 11047A   17288.47341067 -.00000364  00000-0  00000-0 0  9997
2 37804   0.0523 125.7888 0003324 143.0895  55.7510  1.00268040 22328
COSMOS 2473             
1 37806U 11048A   17287.97157978 -.00000134  00000-0  00000-0 0  9995
2 37806   0.0498  95.5841 0003268 157.0834 107.3153  1.00271029 22282
SES-2                   
1 37809U 11049A   17288.85188312 -.00000222  00000-0  00000+0 0  9990
2 37809   0.0100 175.9242 0002057  11.5361  56.7964  1.00273093 22265
ARABSAT-5C              
1 37810U 11049B   17288.39146435  .00000097  00000-0  00000-0 0  9991
2 37810   0.0641   7.4686 0003096 187.1260 350.4530  1.00270896 22306
EUTELSAT 7 WEST A       
1 37816U 11051A   17287.95444531 -.00000087  00000-0  00000+0 0  9998
2 37816   0.0648  27.9865 0006149 178.4387 153.5619  1.00271380 22219
QUETZSAT 1              
1 37826U 11054A   17288.46157037 -.00000268  00000-0  00000-0 0  9993
2 37826   0.0529  64.5162 0002333 136.7026 272.1361  1.00270935 18169
INTELSAT 18 (IS-18)     
1 37834U 11056A   17288.72948628  .00000026  00000-0  00000+0 0  9997
2 37834   0.0127 136.4992 0001850  68.6267 261.9294  1.00268527 22109
EUTELSAT 16A            
1 37836U 11057A   17288.27896858  .00000077  00000-0  00000+0 0  9993
2 37836   0.0680   5.8434 0004456 202.3906 292.2195  1.00270316 22035
VIASAT-1                
1 37843U 11059A   17288.49282043 -.00000050  00000-0  00000-0 0  9995
2 37843   0.0234 224.9260 0002454 338.6140 242.9788  1.00270167 15573
ASIASAT 7               
1 37933U 11069A   17288.89447251 -.00000360  00000-0  00000+0 0  9997
2 37933   0.0211 204.0598 0001286 309.3640 298.7011  1.00270142 21717
LUCH 5A                 
1 37951U 11074B   17288.49841228 -.00000070  00000-0  00000+0 0  9999
2 37951   1.6089 169.2056 0002991  69.0655 132.4638  1.00268314 21434
NIGCOMSAT 1R            
1 38014U 11077A   17288.83291406  .00000118  00000-0  00000+0 0  9990
2 38014   0.0491  48.6959 0001043 155.6265 162.5535  1.00272741 21285
FENGYUN 2F              
1 38049U 12002A   17288.16467087 -.00000380  00000-0  00000+0 0  9995
2 38049   1.9573  78.2926 0004192 225.4959 251.0332  1.00263758 21132
SES-4                   
1 38087U 12007A   17288.40604769 -.00000195  00000-0  00000+0 0  9993
2 38087   0.0246 321.6246 0002372 252.2772 294.4232  1.00271851 20738
BEIDOU G5               
1 38091U 12008A   17288.45257890  .00000033  00000-0  00000-0 0  9994
2 38091   1.8621  57.8017 0005147 223.4867 324.3471  1.00270744 20728
INTELSAT 22 (IS-22)     
1 38098U 12011A   17288.73174334 -.00000086  00000-0  00000+0 0  9995
2 38098   0.0115  78.5751 0002257 125.9089 155.5234  1.00272711 20301
APSTAR 7                
1 38107U 12013A   17288.79910434 -.00000128  00000-0  00000+0 0  9990
2 38107   0.0091 352.0415 0002774 227.6646 168.9963  1.00271211 20429
YAHSAT 1B               
1 38245U 12016A   17288.79963922  .00000100  00000-0  00000+0 0  9995
2 38245   0.0170 242.7516 0001365 347.2454 130.0091  1.00272821 20170
JCSAT-13                
1 38331U 12023A   17288.58796652 -.00000383  00000-0  00000+0 0  9994
2 38331   0.0421  62.1085 0002469 169.8778 128.0095  1.00271864 19820
VINASAT-2               
1 38332U 12023B   17288.56299463 -.00000355  00000-0  00000-0 0  9991
2 38332   0.0268  91.4719 0001817 111.5663 155.7805  1.00272667 14904
NIMIQ 6                 
1 38342U 12026A   17288.18663222 -.00000200  00000-0  00000-0 0  9990
2 38342   0.0462  72.7078 0002383 130.9231 156.3764  1.00270992 18685
CHINASAT 2A (ZX 2A)     
1 38352U 12028A   17288.57271567 -.00000320  00000-0  00000-0 0  9996
2 38352   0.0333 287.8137 0004227  35.4630   5.4766  1.00272565 19628
INTELSAT 19 (IS-19)     
1 38356U 12030A   17288.47160886 -.00000083  00000-0  00000-0 0  9999
2 38356   0.0150  81.0761 0002997 131.9510 146.9723  1.00272304 18711
ECHOSTAR 17             
1 38551U 12035A   17288.23096216 -.00000101  00000-0  00000-0 0  9991
2 38551   0.0220 214.1245 0001939 344.8879 160.9803  1.00269207 19310
METEOSAT-10 (MSG-3)     
1 38552U 12035B   17287.93446402 -.00000033  00000-0  00000-0 0  9998
2 38552   0.8379   7.2194 0001401 235.3925 117.3921  1.00265906 19463
SES-5                   
1 38652U 12036A   17288.28382771  .00000007  00000-0  00000-0 0  9997
2 38652   0.0486 265.0807 0001714 314.0268 272.0714  1.00272512 12757
TIANLIAN 1-03           
1 38730U 12040A   17287.90502954  .00000046  00000-0  00000-0 0  9997
2 38730   0.0335 197.2260 0003257 354.3850 168.3999  1.00272766 16964
